{"hotcity":[{"city_id":"2419","centerx":"116.407413","district_online":"1","centery":"39.904214","name":"北京","province":"北京","zone_online":"1","pinyin":"beijing"},{"city_id":"2421","centerx":"121.473704","district_online":"1","centery":"31.230393","name":"上海","province":"上海","zone_online":"1","pinyin":"shanghai"},{"city_id":"2422","centerx":"113.264435","district_online":"1","centery":"23.129163","name":"广州","province":"广东","zone_online":"1","pinyin":"guangzhou"},{"city_id":"372","centerx":"114.057868","district_online":"1","centery":"22.543099","name":"深圳","province":"广东","zone_online":"1","pinyin":"shenzhen"},{"city_id":"2420","centerx":"117.214389","district_online":"1","centery":"39.121079","name":"天津","province":"天津","zone_online":"1","pinyin":"tianjin"},{"city_id":"2418","centerx":"106.551557","district_online":"1","centery":"29.56301","name":"重庆","province":"重庆","zone_online":"1","pinyin":"chongqing"},{"city_id":"1059","centerx":"118.796877","district_online":"1","centery":"32.060255","name":"南京","province":"江苏","zone_online":"1","pinyin":"nanjing"},{"city_id":"975","centerx":"114.305357","district_online":"1","centery":"30.593087","name":"武汉","province":"湖北","zone_online":"1","pinyin":"wuhan"},{"city_id":"1494","centerx":"108.944269","district_online":"1","centery":"34.264987","name":"西安","province":"陕西","zone_online":"1","pinyin":"xian"},{"city_id":"2259","centerx":"120.155361","district_online":"1","centery":"30.273978","name":"杭州","province":"浙江","zone_online":"1","pinyin":"hangzhou"},{"city_id":"1840","centerx":"104.064856","district_online":"1","centery":"30.658601","name":"成都","province":"四川","zone_online":"1","pinyin":"chengdu"},{"city_id":"1591","centerx":"116.994917","district_online":"1","centery":"36.665282","name":"济南","province":"山东","zone_online":"1","pinyin":"jinan"},{"city_id":"1082","centerx":"120.585316","district_online":"1","centery":"31.298886","name":"苏州","province":"江苏","zone_online":"1","pinyin":"suzhou"},{"city_id":"322","centerx":"113.751765","district_online":"1","centery":"23.020536","name":"东莞","province":"广东","zone_online":"1","pinyin":"dongguan"},{"city_id":"852","centerx":"113.624899","district_online":"1","centery":"34.746985","name":"郑州","province":"河南","zone_online":"1","pinyin":"zhengzhou"},{"city_id":"2268","centerx":"121.54399","district_online":"1","centery":"29.868336","name":"宁波","province":"浙江","zone_online":"1","pinyin":"ningbo"}],"allcity":[{"city_id":"152900","centerx":105.73546,"district_online":"1","centery":38.857855,"name":"阿拉善盟","province":"内蒙古","zone_online":"1","pinyin":"alashanmeng"},{"city_id":"232800","centerx":125.350406,"district_online":"1","centery":46.423355,"name":"安达","province":"黑龙江","zone_online":"1","pinyin":"anda"},{"city_id":"68","centerx":"117.056857","district_online":"1","centery":"30.524895","name":"安庆","province":"安徽","zone_online":"1","pinyin":"anqing"},{"city_id":"1269","centerx":"122.994646","district_online":"1","centery":"41.108546","name":"鞍山","province":"辽宁","zone_online":"0","pinyin":"anshan"},{"city_id":"820","centerx":"114.392756","district_online":"1","centery":"36.097593","name":"安阳","province":"河南","zone_online":"1","pinyin":"anyang"},{"city_id":"131400","centerx":116.030601,"district_online":"0","centery":39.126815,"name":"白沟","province":"河北","zone_online":"0","pinyin":"baigou"},{"city_id":"649","centerx":"115.46463","district_online":"1","centery":"38.873972","name":"保定","province":"河北","zone_online":"1","pinyin":"baoding"},{"city_id":"1492","centerx":"107.1339","district_online":"1","centery":"34.372436","name":"宝鸡","province":"陕西","zone_online":"0","pinyin":"baoji"},{"city_id":"1372","centerx":"109.840386","district_online":"1","centery":"40.657447","name":"包头","province":"内蒙古","zone_online":"1","pinyin":"baotou"},{"city_id":"150800","centerx":107.394055,"district_online":"1","centery":40.749398,"name":"巴彦淖尔","province":"内蒙古","zone_online":"1","pinyin":"bayannaoer"},{"city_id":"475","centerx":"109.119899","district_online":"1","centery":"21.481217","name":"北海","province":"广西","zone_online":"1","pinyin":"beihai"},{"city_id":"2419","centerx":"116.407413","district_online":"1","centery":"39.904214","name":"北京","province":"北京","zone_online":"1","pinyin":"beijing"},{"city_id":"22","centerx":"117.389719","district_online":"1","centery":"32.916287","name":"蚌埠","province":"安徽","zone_online":"1","pinyin":"bengbu"},{"city_id":"1258","centerx":"123.766485","district_online":"1","centery":"41.294176","name":"本溪","province":"辽宁","zone_online":"1","pinyin":"benxi"},{"city_id":"6","centerx":"115.778676","district_online":"1","centery":"33.844582","name":"亳州","province":"安徽","zone_online":"0","pinyin":"bozhou"},{"city_id":"1202","centerx":"125.32353","district_online":"1","centery":"43.817084","name":"长春","province":"吉林","zone_online":"1","pinyin":"changchun"},{"city_id":"1971","centerx":"87.308225","district_online":"1","centery":"44.011183","name":"昌吉","province":"新疆","zone_online":"1","pinyin":"changji"},{"city_id":"2351","centerx":"112.938814","district_online":"1","centery":"28.228209","name":"长沙","province":"湖南","zone_online":"1","pinyin":"changsha"},{"city_id":"2343","centerx":"112.938814","district_online":"0","centery":"28.228209","name":"长沙县","province":"湖南","zone_online":"0","pinyin":"changshaxian"},{"city_id":"1077","centerx":"120.75241","district_online":"1","centery":"31.653847","name":"常熟","province":"江苏","zone_online":"1","pinyin":"changshu"},{"city_id":"1747","centerx":"113.116255","district_online":"1","centery":"36.195386","name":"长治","province":"山西","zone_online":"1","pinyin":"changzhi"},{"city_id":"1073","centerx":"119.974454","district_online":"1","centery":"31.810077","name":"常州","province":"江苏","zone_online":"1","pinyin":"changzhou"},{"city_id":"39","centerx":"117.864722","district_online":"1","centery":"31.597853","name":"巢湖","province":"安徽","zone_online":"1","pinyin":"chaohu"},{"city_id":"351","centerx":"116.622597","district_online":"1","centery":"23.656972","name":"潮州","province":"广东","zone_online":"1","pinyin":"chaozhou"},{"city_id":"596","centerx":"117.943621","district_online":"1","centery":"40.978744","name":"承德","province":"河北","zone_online":"0","pinyin":"chengde"},{"city_id":"1840","centerx":"104.064856","district_online":"1","centery":"30.658601","name":"成都","province":"四川","zone_online":"1","pinyin":"chengdu"},{"city_id":"1341","centerx":"118.886856","district_online":"1","centery":"42.257817","name":"赤峰","province":"内蒙古","zone_online":"1","pinyin":"chifeng"},{"city_id":"65","centerx":"117.495707","district_online":"1","centery":"30.674219","name":"池州","province":"安徽","zone_online":"1","pinyin":"chizhou"},{"city_id":"2418","centerx":"106.551557","district_online":"1","centery":"29.56301","name":"重庆","province":"重庆","zone_online":"1","pinyin":"chongqing"},{"city_id":"32","centerx":"118.317107","district_online":"1","centery":"32.301556","name":"滁州","province":"安徽","zone_online":"1","pinyin":"chuzhou"},{"city_id":"2160","centerx":"100.230098","district_online":"1","centery":"25.591909","name":"大理","province":"云南","zone_online":"1","pinyin":"dali"},{"city_id":"1288","centerx":"121.614677","district_online":"1","centery":"38.914024","name":"大连","province":"辽宁","zone_online":"1","pinyin":"dalian"},{"city_id":"782","centerx":"125.104637","district_online":"1","centery":"46.59019","name":"大庆","province":"黑龙江","zone_online":"1","pinyin":"daqing"},{"city_id":"1673","centerx":"113.300126","district_online":"1","centery":"40.076816","name":"大同","province":"山西","zone_online":"1","pinyin":"datong"},{"city_id":"1830","centerx":"107.468023","district_online":"1","centery":"31.209572","name":"达州","province":"四川","zone_online":"1","pinyin":"dazhou"},{"city_id":"1829","centerx":"104.397808","district_online":"1","centery":"31.127537","name":"德阳","province":"四川","zone_online":"1","pinyin":"deyang"},{"city_id":"661","centerx":"114.990186","district_online":"1","centery":"38.516316","name":"定州","province":"河北","zone_online":"0","pinyin":"dingzhou"},{"city_id":"533400","centerx":99.709008,"district_online":"1","centery":27.825348,"name":"迪庆","province":"云南","zone_online":"1","pinyin":"diqing"},{"city_id":"322","centerx":"113.751765","district_online":"1","centery":"23.020536","name":"东莞","province":"广东","zone_online":"1","pinyin":"dongguan"},{"city_id":"361200","centerx":116.609849,"district_online":"0","centery":28.254013,"name":"东乡","province":"江西","zone_online":"0","pinyin":"dongxiang"},{"city_id":"1828","centerx":"103.619385","district_online":"1","centery":"30.998259","name":"都江堰","province":"四川","zone_online":"1","pinyin":"dujiangyan"},{"city_id":"210","centerx":"94.661881","district_online":"1","centery":"40.14213","name":"敦煌","province":"甘肃","zone_online":"0","pinyin":"dunhuang"},{"city_id":"1380","centerx":"109.781202","district_online":"1","centery":"39.608182","name":"鄂尔多斯","province":"内蒙古","zone_online":"1","pinyin":"eerduosi"},{"city_id":"354","centerx":"113.121416","district_online":"1","centery":"23.021548","name":"佛山","province":"广东","zone_online":"1","pinyin":"foshan"},{"city_id":"1290","centerx":"121.670325","district_online":"1","centery":"42.021619","name":"阜新","province":"辽宁","zone_online":"0","pinyin":"fuxin"},{"city_id":"19","centerx":"115.814144","district_online":"1","centery":"32.890124","name":"阜阳","province":"安徽","zone_online":"1","pinyin":"fuyangah"},{"city_id":"2266","centerx":"119.96017","district_online":"1","centery":"30.048838","name":"富阳","province":"浙江","zone_online":"1","pinyin":"fuyangzj"},{"city_id":"171","centerx":"119.296494","district_online":"1","centery":"26.074508","name":"福州","province":"福建","zone_online":"1","pinyin":"fuzhou"},{"city_id":"1132","centerx":"116.358176","district_online":"1","centery":"27.9492","name":"抚州","province":"江西","zone_online":"1","pinyin":"fuzhoujx"},{"city_id":"1170","centerx":"114.933553","district_online":"1","centery":"25.829209","name":"赣州","province":"江西","zone_online":"1","pinyin":"ganzhou"},{"city_id":"131200","centerx":115.879958,"district_online":"0","centery":39.332542,"name":"高碑店","province":"河北","zone_online":"0","pinyin":"gaobeidian"},{"city_id":"131300","centerx":116.304677,"district_online":"0","centery":39.444497,"name":"固安","province":"河北","zone_online":"0","pinyin":"guan"},{"city_id":"513800","centerx":104.288918,"district_online":"1","centery":30.983636,"name":"广汉","province":"四川","zone_online":"1","pinyin":"guanghan"},{"city_id":"510800","centerx":105.84987,"district_online":"1","centery":32.441817,"name":"广元","province":"四川","zone_online":"0","pinyin":"guangyuan"},{"city_id":"2422","centerx":"113.264435","district_online":"1","centery":"23.129163","name":"广州","province":"广东","zone_online":"1","pinyin":"guangzhou"},{"city_id":"457","centerx":"109.598927","district_online":"1","centery":"23.111531","name":"贵港","province":"广西","zone_online":"1","pinyin":"guigang"},{"city_id":"407","centerx":"110.290195","district_online":"1","centery":"25.273566","name":"桂林","province":"广西","zone_online":"1","pinyin":"guilin"},{"city_id":"519","centerx":"106.630104","district_online":"1","centery":"26.647481","name":"贵阳","province":"贵州","zone_online":"1","pinyin":"guiyang"},{"city_id":"795","centerx":"126.535065","district_online":"1","centery":"45.803156","name":"哈尔滨","province":"黑龙江","zone_online":"1","pinyin":"haerbin"},{"city_id":"562","centerx":"110.328873","district_online":"1","centery":"20.030765","name":"海口","province":"海南","zone_online":"1","pinyin":"haikou"},{"city_id":"1068","centerx":"121.170601","district_online":"1","centery":"31.893726","name":"海门","province":"江苏","zone_online":"1","pinyin":"haimen"},{"city_id":"730","centerx":114.545866,"district_online":"1","centery":36.631195,"name":"邯郸","province":"河北","zone_online":"1","pinyin":"handan"},{"city_id":"2259","centerx":"120.155361","district_online":"1","centery":"30.273978","name":"杭州","province":"浙江","zone_online":"1","pinyin":"hangzhou"},{"city_id":"824","centerx":"114.297273","district_online":"1","centery":"35.747225","name":"鹤壁","province":"河南","zone_online":"1","pinyin":"hebi"},{"city_id":"40","centerx":"117.227271","district_online":"1","centery":"31.821448","name":"合肥","province":"安徽","zone_online":"1","pinyin":"hefei"},{"city_id":"1634","centerx":"115.480656","district_online":"1","centery":"35.23375","name":"菏泽","province":"山东","zone_online":"1","pinyin":"heze"},{"city_id":"1042","centerx":"119.015288","district_online":"1","centery":"33.61036","name":"淮安","province":"江苏","zone_online":"1","pinyin":"huaian"},{"city_id":"4","centerx":"116.798265","district_online":"1","centery":"33.955845","name":"淮北","province":"安徽","zone_online":"1","pinyin":"huaibei"},{"city_id":"25","centerx":"116.999933","district_online":"1","centery":"32.625478","name":"淮南","province":"安徽","zone_online":"1","pinyin":"huainan"},{"city_id":"69","centerx":"118.337476","district_online":"1","centery":"29.714683","name":"黄山","province":"安徽","zone_online":"1","pinyin":"huangshan"},{"city_id":"1365","centerx":"111.748847","district_online":"1","centery":"40.84231","name":"呼和浩特","province":"内蒙古","zone_online":"1","pinyin":"huhehaote"},{"city_id":"358","centerx":"114.416196","district_online":"1","centery":"23.111847","name":"惠州","province":"广东","zone_online":"1","pinyin":"huizhou"},{"city_id":"1268","centerx":"120.836827","district_online":"1","centery":"40.710953","name":"葫芦岛","province":"辽宁","zone_online":"1","pinyin":"huludao"},{"city_id":"1303","centerx":"119.765739","district_online":"1","centery":"49.211572","name":"呼伦贝尔","province":"内蒙古","zone_online":"1","pinyin":"hulunbeier"},{"city_id":"2250","centerx":"120.086818","district_online":"1","centery":"30.89436","name":"湖州","province":"浙江","zone_online":"1","pinyin":"huzhou"},{"city_id":"781","centerx":"130.318917","district_online":"1","centery":"46.799923","name":"佳木斯","province":"黑龙江","zone_online":"1","pinyin":"jiamusi"},{"city_id":"374","centerx":"113.081831","district_online":"1","centery":"22.578723","name":"江门","province":"广东","zone_online":"1","pinyin":"jiangmen"},{"city_id":"1075","centerx":"120.284946","district_online":"1","centery":"31.920673","name":"江阴","province":"江苏","zone_online":"1","pinyin":"jiangyin"},{"city_id":"513500","centerx":104.751871,"district_online":"1","centery":31.784624,"name":"江油","province":"四川","zone_online":"1","pinyin":"jiangyou"},{"city_id":"1155","centerx":"114.992913","district_online":"1","centery":"27.113039","name":"吉安","province":"江西","zone_online":"1","pinyin":"jianjx"},{"city_id":"840","centerx":"113.241823","district_online":"1","centery":"35.215893","name":"焦作","province":"河南","zone_online":"1","pinyin":"jiaozuo"},{"city_id":"2249","centerx":"120.758543","district_online":"1","centery":"30.753924","name":"嘉兴","province":"浙江","zone_online":"1","pinyin":"jiaxing"},{"city_id":"215","centerx":"98.289152","district_online":"0","centery":"39.77313","name":"嘉峪关","province":"甘肃","zone_online":"0","pinyin":"jiayuguan"},{"city_id":"312","centerx":"116.372831","district_online":"1","centery":"23.549993","name":"揭阳","province":"广东","zone_online":"1","pinyin":"jieyang"},{"city_id":"1200","centerx":"126.549572","district_online":"1","centery":"43.837883","name":"吉林","province":"吉林","zone_online":"1","pinyin":"jilin"},{"city_id":"1591","centerx":"116.994917","district_online":"1","centery":"36.665282","name":"济南","province":"山东","zone_online":"1","pinyin":"jinan"},{"city_id":"226","centerx":"102.188043","district_online":"1","centery":"38.520089","name":"金昌","province":"甘肃","zone_online":"0","pinyin":"jinchang"},{"city_id":"1777","centerx":"112.851768","district_online":"1","centery":"35.49087","name":"晋城","province":"山西","zone_online":"1","pinyin":"jincheng"},{"city_id":"1102","centerx":"117.181566","district_online":"1","centery":"29.307094","name":"景德镇","province":"江西","zone_online":"1","pinyin":"jindezhen"},{"city_id":"2286","centerx":"119.647421","district_online":"1","centery":"29.079164","name":"金华","province":"浙江","zone_online":"1","pinyin":"jinhua"},{"city_id":"197","centerx":"118.580527","district_online":"1","centery":"24.815079","name":"晋江","province":"福建","zone_online":"1","pinyin":"jinjiang"},{"city_id":"1711","centerx":"112.752695","district_online":"1","centery":"37.687024","name":"晋中","province":"山西","zone_online":"1","pinyin":"jinzhong"},{"city_id":"1267","centerx":"121.127063","district_online":"1","centery":"41.095123","name":"锦州","province":"辽宁","zone_online":"1","pinyin":"jinzhou"},{"city_id":"1093","centerx":"116.001982","district_online":"1","centery":"29.705096","name":"九江","province":"江西","zone_online":"1","pinyin":"jiujiang"},{"city_id":"214","centerx":"98.494411","district_online":"1","centery":"39.732488","name":"酒泉","province":"甘肃","zone_online":"0","pinyin":"jiuquan"},{"city_id":"857","centerx":"114.307624","district_online":"1","centery":"34.797683","name":"开封","province":"河南","zone_online":"1","pinyin":"kaifeng"},{"city_id":"2009","centerx":"86.155288","district_online":"1","centery":"41.766023","name":"库尔勒","province":"新疆","zone_online":"1","pinyin":"kuerle"},{"city_id":"2179","centerx":"102.722202","district_online":"1","centery":"25.037721","name":"昆明","province":"云南","zone_online":"1","pinyin":"kunming"},{"city_id":"1083","centerx":"120.98115","district_online":"1","centery":"31.384913","name":"昆山","province":"江苏","zone_online":"1","pinyin":"kunshan"},{"city_id":"1600","centerx":"117.676731","district_online":"1","centery":"36.213691","name":"莱芜","province":"山东","zone_online":"1","pinyin":"laiwu"},{"city_id":"2282","centerx":"119.460502","district_online":"0","centery":"29.208542","name":"兰溪","province":"浙江","zone_online":"0","pinyin":"lanxi"},{"city_id":"242","centerx":"103.834377","district_online":"1","centery":"36.061255","name":"兰州","province":"甘肃","zone_online":"1","pinyin":"lanzhou"},{"city_id":"1104","centerx":"117.129169","district_online":"1","centery":"28.961902","name":"乐平","province":"江西","zone_online":"0","pinyin":"leping"},{"city_id":"1883","centerx":"103.765623","district_online":"1","centery":"29.552064","name":"乐山","province":"四川","zone_online":"0","pinyin":"leshan"},{"city_id":"1026","centerx":"119.221282","district_online":"1","centery":"34.596544","name":"连云港","province":"江苏","zone_online":"1","pinyin":"lianyungang"},{"city_id":"1594","centerx":"115.985371","district_online":"1","centery":"36.456704","name":"聊城","province":"山东","zone_online":"1","pinyin":"liaocheng"},{"city_id":"2139","centerx":"100.230376","district_online":"1","centery":"26.876774","name":"丽江","province":"云南","zone_online":"1","pinyin":"lijiang"},{"city_id":"1749","centerx":"111.51888","district_online":"1","centery":"36.088067","name":"临汾","province":"山西","zone_online":"1","pinyin":"linfen"},{"city_id":"258","centerx":"103.210539","district_online":"1","centery":"35.601182","name":"临夏","province":"甘肃","zone_online":"1","pinyin":"linxia"},{"city_id":"1637","centerx":"118.347707","district_online":"1","centery":"35.051712","name":"临沂","province":"山东","zone_online":"1","pinyin":"linyi"},{"city_id":"2298","centerx":"119.922796","district_online":"1","centery":"28.46763","name":"丽水","province":"浙江","zone_online":"1","pinyin":"lishui"},{"city_id":"321400","centerx":119.034807,"district_online":"1","centery":31.657289,"name":"溧水","province":"江苏","zone_online":"1","pinyin":"lishuijs"},{"city_id":"427","centerx":"109.415912","district_online":"1","centery":"24.325468","name":"柳州","province":"广西","zone_online":"1","pinyin":"liuzhou"},{"city_id":"293","centerx":"104.922071","district_online":"1","centery":"33.400766","name":"陇南","province":"甘肃","zone_online":"0","pinyin":"longnan"},{"city_id":"185","centerx":"117.03403","district_online":"1","centery":"25.100632","name":"龙岩","province":"福建","zone_online":"1","pinyin":"longyan"},{"city_id":"865","centerx":"112.454363","district_online":"1","centery":"34.618154","name":"洛阳","province":"河南","zone_online":"1","pinyin":"luoyang"},{"city_id":"1904","centerx":"105.442263","district_online":"1","centery":"28.871864","name":"泸州","province":"四川","zone_online":"1","pinyin":"luzhou"},{"city_id":"1713","centerx":"111.144231","district_online":"1","centery":"37.518569","name":"吕梁","province":"山西","zone_online":"0","pinyin":"lvliang"},{"city_id":"43","centerx":"118.504657","district_online":"1","centery":"31.696788","name":"马鞍山","province":"安徽","zone_online":"1","pinyin":"maanshan"},{"city_id":"386","centerx":"110.925456","district_online":"1","centery":"21.662999","name":"茂名","province":"广东","zone_online":"1","pinyin":"maoming"},{"city_id":"1870","centerx":"103.848462","district_online":"1","centery":"30.076015","name":"眉山","province":"四川","zone_online":"1","pinyin":"meishan"},{"city_id":"342","centerx":"116.122469","district_online":"1","centery":"24.288384","name":"梅州","province":"广东","zone_online":"1","pinyin":"meizhou"},{"city_id":"1811","centerx":"104.679114","district_online":"1","centery":"31.46745","name":"绵阳","province":"四川","zone_online":"1","pinyin":"mianyang"},{"city_id":"514000","centerx":104.227605,"district_online":"0","centery":31.344119,"name":"绵竹","province":"四川","zone_online":"0","pinyin":"mianzhu"},{"city_id":"813","centerx":"129.632076","district_online":"1","centery":"44.551439","name":"牡丹江","province":"黑龙江","zone_online":"0","pinyin":"mudanjiang"},{"city_id":"190","centerx":"118.386279","district_online":"1","centery":"24.960385","name":"南安","province":"福建","zone_online":"1","pinyin":"nanan"},{"city_id":"1111","centerx":"115.858089","district_online":"1","centery":"28.68316","name":"南昌","province":"江西","zone_online":"1","pinyin":"nanchang"},{"city_id":"1838","centerx":"106.110595","district_online":"1","centery":"30.837888","name":"南充","province":"四川","zone_online":"1","pinyin":"nanchong"},{"city_id":"1059","centerx":"118.796877","district_online":"1","centery":"32.060255","name":"南京","province":"江苏","zone_online":"1","pinyin":"nanjing"},{"city_id":"1168","centerx":"114.765118","district_online":"0","centery":"25.661232","name":"南康","province":"江西","zone_online":"0","pinyin":"nankang"},{"city_id":"462","centerx":"108.365631","district_online":"1","centery":"22.817642","name":"南宁","province":"广西","zone_online":"1","pinyin":"nanning"},{"city_id":"161","centerx":"118.17739","district_online":"1","centery":"26.641671","name":"南平","province":"福建","zone_online":"0","pinyin":"nanping"},{"city_id":"1071","centerx":"120.894324","district_online":"1","centery":"31.979997","name":"南通","province":"江苏","zone_online":"1","pinyin":"nantong"},{"city_id":"1881","centerx":"105.058352","district_online":"1","centery":"29.580237","name":"内江","province":"四川","zone_online":"1","pinyin":"neijiang"},{"city_id":"2268","centerx":"121.54399","district_online":"1","centery":"29.868336","name":"宁波","province":"浙江","zone_online":"1","pinyin":"ningbo"},{"city_id":"159","centerx":"119.526287","district_online":"1","centery":"26.666291","name":"宁德","province":"福建","zone_online":"1","pinyin":"ningde"},{"city_id":"1266","centerx":"122.070714","district_online":"1","centery":"41.119997","name":"盘锦","province":"辽宁","zone_online":"1","pinyin":"panjin"},{"city_id":"513600","centerx":103.964533,"district_online":"1","centery":30.995997,"name":"彭州","province":"四川","zone_online":"0","pinyin":"pengzhou"},{"city_id":"1146","centerx":"113.854676","district_online":"1","centery":"27.622865","name":"萍乡","province":"江西","zone_online":"1","pinyin":"pingxiang"},{"city_id":"183","centerx":"119.007715","district_online":"1","centery":"25.454098","name":"莆田","province":"福建","zone_online":"1","pinyin":"putian"},{"city_id":"829","centerx":"115.029331","district_online":"1","centery":"35.762141","name":"濮阳","province":"河南","zone_online":"1","pinyin":"puyang"},{"city_id":"613","centerx":"118.701147","district_online":"0","centery":"39.999088","name":"迁安","province":"河北","zone_online":"0","pinyin":"qianan"},{"city_id":"522600","centerx":107.988515,"district_online":"1","centery":26.590324,"name":"黔东南","province":"贵州","zone_online":"0","pinyin":"qiandongnan"},{"city_id":"522700","centerx":104.912056,"district_online":"0","centery":25.103001,"name":"黔西南","province":"贵州","zone_online":"0","pinyin":"qianxinan"},{"city_id":"1605","centerx":"120.382504","district_online":"1","centery":"36.06722","name":"青岛","province":"山东","zone_online":"1","pinyin":"qingdao"},{"city_id":"307","centerx":"113.056042","district_online":"1","centery":"23.681801","name":"清远","province":"广东","zone_online":"1","pinyin":"qingyuan"},{"city_id":"616","centerx":"119.600492","district_online":"1","centery":"39.935377","name":"秦皇岛","province":"河北","zone_online":"1","pinyin":"qinhuangdao"},{"city_id":"762","centerx":"123.918042","district_online":"1","centery":"47.354453","name":"齐齐哈尔","province":"黑龙江","zone_online":"1","pinyin":"qiqihaer"},{"city_id":"191","centerx":"118.586812","district_online":"1","centery":"24.907574","name":"泉州","province":"福建","zone_online":"1","pinyin":"quanzhou"},{"city_id":"1629","centerx":"119.526888","district_online":"1","centery":"35.416377","name":"日照","province":"山东","zone_online":"1","pinyin":"rizhao"},{"city_id":"861","centerx":"111.20023","district_online":"1","centery":"34.772424","name":"三门峡","province":"河南","zone_online":"1","pinyin":"sanmenxia"},{"city_id":"170","centerx":"117.638709","district_online":"1","centery":"26.263432","name":"三明","province":"福建","zone_online":"1","pinyin":"sanming"},{"city_id":"440607","centerx":112.903222,"district_online":"1","centery":23.16205,"name":"三水","province":"广东","zone_online":"1","pinyin":"sanshui"},{"city_id":"578","centerx":"109.511909","district_online":"1","centery":"18.252847","name":"三亚","province":"海南","zone_online":"1","pinyin":"sanya"},{"city_id":"2421","centerx":"121.473704","district_online":"1","centery":"31.230393","name":"上海","province":"上海","zone_online":"1","pinyin":"shanghai"},{"city_id":"1122","centerx":"117.976371","district_online":"1","centery":"28.443318","name":"上饶","province":"江西","zone_online":"1","pinyin":"shangrao"},{"city_id":"353","centerx":"116.681943","district_online":"1","centery":"23.353362","name":"汕头","province":"广东","zone_online":"1","pinyin":"shantou"},{"city_id":"330","centerx":"113.597522","district_online":"1","centery":"24.810403","name":"韶关","province":"广东","zone_online":"1","pinyin":"shaoguan"},{"city_id":"2267","centerx":"120.586109","district_online":"1","centery":"29.995762","name":"绍兴","province":"浙江","zone_online":"1","pinyin":"shaoxing"},{"city_id":"1242","centerx":"123.43147","district_online":"1","centery":"41.80572","name":"沈阳","province":"辽宁","zone_online":"1","pinyin":"shenyang"},{"city_id":"372","centerx":"114.057868","district_online":"1","centery":"22.543099","name":"深圳","province":"广东","zone_online":"1","pinyin":"shenzhen"},{"city_id":"513900","centerx":104.173661,"district_online":"0","centery":31.133716,"name":"什邡","province":"四川","zone_online":"0","pinyin":"shifang"},{"city_id":"683","centerx":"114.51486","district_online":"1","centery":"38.042307","name":"石家庄","province":"河北","zone_online":"1","pinyin":"shijiazhuang"},{"city_id":"199","centerx":"118.64794","district_online":"1","centery":"24.732246","name":"石狮","province":"福建","zone_online":"1","pinyin":"shishi"},{"city_id":"1385","centerx":"106.368062","district_online":"1","centery":"39.019057","name":"石嘴山","province":"宁夏","zone_online":"1","pinyin":"shizuishan"},{"city_id":"1571","centerx":"118.740775","district_online":"1","centery":"36.881113","name":"寿光","province":"山东","zone_online":"1","pinyin":"shouguang"},{"city_id":"440606","centerx":113.30072,"district_online":"1","centery":22.810671,"name":"顺德","province":"广东","zone_online":"1","pinyin":"shunde"},{"city_id":"1677","centerx":"112.432714","district_online":"1","centery":"39.331149","name":"朔州","province":"山西","zone_online":"1","pinyin":"shuozhou"},{"city_id":"1212","centerx":"124.350352","district_online":"1","centery":"43.166937","name":"四平","province":"吉林","zone_online":"0","pinyin":"siping"},{"city_id":"775","centerx":"126.980006","district_online":"1","centery":"46.636631","name":"绥化","province":"黑龙江","zone_online":"0","pinyin":"suihua"},{"city_id":"1037","centerx":"118.275293","district_online":"1","centery":"33.962071","name":"宿迁","province":"江苏","zone_online":"1","pinyin":"suqian"},{"city_id":"1082","centerx":"120.585316","district_online":"1","centery":"31.298886","name":"苏州","province":"江苏","zone_online":"1","pinyin":"suzhou"},{"city_id":"5","centerx":"116.985301","district_online":"1","centery":"33.639394","name":"宿州","province":"安徽","zone_online":"1","pinyin":"suzhouah"},{"city_id":"1603","centerx":"117.087614","district_online":"1","centery":"36.200252","name":"泰安","province":"山东","zone_online":"1","pinyin":"taian"},{"city_id":"1078","centerx":"121.10892","district_online":"1","centery":"31.449779","name":"太仓","province":"江苏","zone_online":"1","pinyin":"taicang"},{"city_id":"1709","centerx":"112.550619","district_online":"1","centery":"37.870662","name":"太原","province":"山西","zone_online":"1","pinyin":"taiyuan"},{"city_id":"618","centerx":"118.180407","district_online":"1","centery":"39.630476","name":"唐山","province":"河北","zone_online":"1","pinyin":"tangshan"},{"city_id":"2420","centerx":"117.214389","district_online":"1","centery":"39.121079","name":"天津","province":"天津","zone_online":"1","pinyin":"tianjin"},{"city_id":"54","centerx":"116.950782","district_online":"1","centery":"31.05207","name":"桐城","province":"安徽","zone_online":"0","pinyin":"tongcheng"},{"city_id":"1327","centerx":"122.265737","district_online":"1","centery":"43.61944","name":"通辽","province":"内蒙古","zone_online":"1","pinyin":"tongliaoshi"},{"city_id":"61","centerx":"117.810841","district_online":"1","centery":"30.94453","name":"铜陵","province":"安徽","zone_online":"1","pinyin":"tongling"},{"city_id":"2269","centerx":"119.692185","district_online":"1","centery":"29.792949","name":"桐庐","province":"浙江","zone_online":"1","pinyin":"tonglu"},{"city_id":"659200","centerx":79.198155,"district_online":"0","centery":39.889223,"name":"图木舒克","province":"新疆","zone_online":"0","pinyin":"tumushuke"},{"city_id":"500101","centerx":108.414733,"district_online":"1","centery":30.8137,"name":"万州","province":"重庆","zone_online":"1","pinyin":"wanzhou"},{"city_id":"1574","centerx":"119.16193","district_online":"1","centery":"36.706691","name":"潍坊","province":"山东","zone_online":"1","pinyin":"weifang"},{"city_id":"1555","centerx":"122.12042","district_online":"1","centery":"37.513068","name":"威海","province":"山东","zone_online":"1","pinyin":"weihai"},{"city_id":"1381","centerx":"106.822809","district_online":"1","centery":"39.690462","name":"乌海","province":"内蒙古","zone_online":"1","pinyin":"wuhai"},{"city_id":"975","centerx":"114.305357","district_online":"1","centery":"30.593087","name":"武汉","province":"湖北","zone_online":"1","pinyin":"wuhan"},{"city_id":"48","centerx":"118.385156","district_online":"1","centery":"31.33879","name":"芜湖","province":"安徽","zone_online":"1","pinyin":"wuhu"},{"city_id":"659100","centerx":87.565449,"district_online":"0","centery":44.368896,"name":"五家渠","province":"新疆","zone_online":"0","pinyin":"wujiaqu"},{"city_id":"150900","centerx":113.138861,"district_online":"1","centery":41.001132,"name":"乌兰察布","province":"内蒙古","zone_online":"1","pinyin":"wulanchabu"},{"city_id":"1990","centerx":"87.617298","district_online":"1","centery":"43.825666","name":"乌鲁木齐","province":"新疆","zone_online":"1","pinyin":"wulumuqi"},{"city_id":"228","centerx":"102.638009","district_online":"1","centery":"37.928336","name":"武威","province":"甘肃","zone_online":"0","pinyin":"wuwei"},{"city_id":"1079","centerx":"120.303027","district_online":"1","centery":"31.566145","name":"无锡","province":"江苏","zone_online":"1","pinyin":"wuxi"},{"city_id":"1393","centerx":"106.198225","district_online":"1","centery":"37.997476","name":"吴忠","province":"宁夏","zone_online":"1","pinyin":"wuzhong"},{"city_id":"196","centerx":"118.08954","district_online":"1","centery":"24.479656","name":"厦门","province":"福建","zone_online":"1","pinyin":"xiamen"},{"city_id":"1494","centerx":"108.944269","district_online":"1","centery":"34.264987","name":"西安","province":"陕西","zone_online":"1","pinyin":"xian"},{"city_id":"954","centerx":"112.122415","district_online":"1","centery":"32.008986","name":"襄阳","province":"湖北","zone_online":"1","pinyin":"xiangyang"},{"city_id":"1503","centerx":"108.709003","district_online":"1","centery":"34.329563","name":"咸阳","province":"陕西","zone_online":"1","pinyin":"xianyang"},{"city_id":"152500","centerx":116.054361,"district_online":"1","centery":43.939809,"name":"锡林郭勒盟","province":"内蒙古","zone_online":"1","pinyin":"xilinguolemeng"},{"city_id":"152200","centerx":122.044143,"district_online":"1","centery":46.089057,"name":"兴安盟","province":"内蒙古","zone_online":"1","pinyin":"xinganmeng"},{"city_id":"717","centerx":"114.504874","district_online":"1","centery":"37.070589","name":"邢台","province":"河北","zone_online":"0","pinyin":"xingtai"},{"city_id":"1420","centerx":"101.778208","district_online":"1","centery":"36.617085","name":"西宁","province":"青海","zone_online":"1","pinyin":"xining"},{"city_id":"1136","centerx":"114.91741","district_online":"1","centery":"27.817819","name":"新余","province":"江西","zone_online":"1","pinyin":"xinyu"},{"city_id":"1696","centerx":"112.734269","district_online":"1","centery":"38.416364","name":"忻州","province":"山西","zone_online":"0","pinyin":"xinzhou"},{"city_id":"51","centerx":"118.758816","district_online":"1","centery":"30.940718","name":"宣城","province":"安徽","zone_online":"1","pinyin":"xuancheng"},{"city_id":"944","centerx":"113.852461","district_online":"1","centery":"34.035825","name":"许昌","province":"河南","zone_online":"1","pinyin":"xuchang"},{"city_id":"1085","centerx":"117.284067","district_online":"1","centery":"34.20475","name":"徐州","province":"江苏","zone_online":"1","pinyin":"xuzhou"},{"city_id":"1872","centerx":"103.013163","district_online":"1","centery":"29.980514","name":"雅安","province":"四川","zone_online":"0","pinyin":"yaan"},{"city_id":"1046","centerx":"120.163561","district_online":"1","centery":"33.347378","name":"盐城","province":"江苏","zone_online":"1","pinyin":"yancheng"},{"city_id":"324","centerx":"111.982207","district_online":"1","centery":"21.857938","name":"阳江","province":"广东","zone_online":"1","pinyin":"yangjiang"},{"city_id":"1708","centerx":"113.580415","district_online":"1","centery":"37.856658","name":"阳泉","province":"山西","zone_online":"1","pinyin":"yangquan"},{"city_id":"1057","centerx":"119.412855","district_online":"1","centery":"32.394238","name":"扬州","province":"江苏","zone_online":"1","pinyin":"yangzhou"},{"city_id":"1211","centerx":"129.513914","district_online":"1","centery":"42.906959","name":"延吉","province":"吉林","zone_online":"1","pinyin":"yanji"},{"city_id":"1553","centerx":"121.447926","district_online":"1","centery":"37.463819","name":"烟台","province":"山东","zone_online":"1","pinyin":"yantai"},{"city_id":"1907","centerx":"104.643373","district_online":"1","centery":"28.751878","name":"宜宾","province":"四川","zone_online":"1","pinyin":"yibin"},{"city_id":"970","centerx":"111.286471","district_online":"1","centery":"30.691967","name":"宜昌","province":"湖北","zone_online":"1","pinyin":"yichang"},{"city_id":"1137","centerx":"114.395108","district_online":"1","centery":"27.796561","name":"宜春","province":"江西","zone_online":"1","pinyin":"yichun"},{"city_id":"1388","centerx":"106.230909","district_online":"1","centery":"38.487194","name":"银川","province":"宁夏","zone_online":"1","pinyin":"yinchuan"},{"city_id":"1131","centerx":"117.069202","district_online":"1","centery":"28.260189","name":"鹰潭","province":"江西","zone_online":"1","pinyin":"yingtan"},{"city_id":"2278","centerx":"120.075058","district_online":"1","centery":"29.306841","name":"义乌","province":"浙江","zone_online":"0","pinyin":"yiwu"},{"city_id":"431100","centerx":111.620253,"district_online":"0","centery":26.425878,"name":"永州","province":"湖南","zone_online":"0","pinyin":"yongzhou"},{"city_id":"465","centerx":"110.164756","district_online":"1","centery":"22.636379","name":"玉林","province":"广西","zone_online":"1","pinyin":"yulingx"},{"city_id":"1448","centerx":"109.735209","district_online":"1","centery":"38.285526","name":"榆林","province":"陕西","zone_online":"1","pinyin":"yulinsx"},{"city_id":"1770","centerx":"111.007324","district_online":"1","centery":"35.026372","name":"运城","province":"山西","zone_online":"1","pinyin":"yuncheng"},{"city_id":"365","centerx":"112.044491","district_online":"1","centery":"22.915094","name":"云浮","province":"广东","zone_online":"1","pinyin":"yunfu"},{"city_id":"1074","centerx":"120.555667","district_online":"1","centery":"31.875513","name":"张家港","province":"江苏","zone_online":"1","pinyin":"zhangjiagang"},{"city_id":"598","centerx":"114.885951","district_online":"1","centery":"40.767576","name":"张家口","province":"河北","zone_online":"0","pinyin":"zhangjiakou"},{"city_id":"200","centerx":"117.647363","district_online":"1","centery":"24.513321","name":"漳州","province":"福建","zone_online":"1","pinyin":"zhangzhou"},{"city_id":"389","centerx":"110.359255","district_online":"1","centery":"21.270764","name":"湛江","province":"广东","zone_online":"1","pinyin":"zhanjiang"},{"city_id":"361","centerx":"112.465091","district_online":"1","centery":"23.047192","name":"肇庆","province":"广东","zone_online":"1","pinyin":"zhaoqing"},{"city_id":"852","centerx":"113.624899","district_online":"1","centery":"34.746985","name":"郑州","province":"河南","zone_online":"1","pinyin":"zhengzhou"},{"city_id":"1065","centerx":"119.45722","district_online":"1","centery":"32.199147","name":"镇江","province":"江苏","zone_online":"0","pinyin":"zhenjiang"},{"city_id":"514100","centerx":104.685249,"district_online":"0","centery":31.038892,"name":"中江","province":"四川","zone_online":"0","pinyin":"zhongjiang"},{"city_id":"375","centerx":"113.392756","district_online":"1","centery":"22.516481","name":"中山","province":"广东","zone_online":"1","pinyin":"zhongshan"},{"city_id":"1395","centerx":"105.173837","district_online":"1","centery":"37.516892","name":"中卫","province":"宁夏","zone_online":"1","pinyin":"zhongwei"},{"city_id":"908","centerx":"114.657616","district_online":"1","centery":"33.618686","name":"周口","province":"河南","zone_online":"1","pinyin":"zhoukou"},{"city_id":"2265","centerx":"122.206604","district_online":"1","centery":"29.985451","name":"舟山","province":"浙江","zone_online":"1","pinyin":"zhoushan"},{"city_id":"392","centerx":"113.576726","district_online":"1","centery":"22.270715","name":"珠海","province":"广东","zone_online":"1","pinyin":"zhuhai"},{"city_id":"628","centerx":"115.974464","district_online":"1","centery":"39.485281","name":"涿州","province":"河北","zone_online":"1","pinyin":"zhuozhou"},{"city_id":"2361","centerx":"113.133775","district_online":"1","centery":"27.827827","name":"株洲","province":"湖南","zone_online":"1","pinyin":"zhuzhou"},{"city_id":"1588","centerx":"118.055007","district_online":"1","centery":"36.813497","name":"淄博","province":"山东","zone_online":"1","pinyin":"zibo"},{"city_id":"1892","centerx":"104.778442","district_online":"1","centery":"29.33903","name":"自贡","province":"四川","zone_online":"1","pinyin":"zigong"},{"city_id":"2014","centerx":"82.781819","district_online":"1","centery":"41.221667","name":"资阳","province":"四川","zone_online":"1","pinyin":"ziyang"},{"city_id":"611","centerx":"117.96591","district_online":"0","centery":"40.189192","name":"遵化","province":"河北","zone_online":"0","pinyin":"zunhua"}]}